[{"OBJECT_NAME":"GEOSCAN 2 (RS92S2)","OBJECT_ID":"2025-155Q","EPOCH":"2026-03-09T23:01:48.939744","MEAN_MOTION":15.28709337,"ECCENTRICITY":0.00085277,"INCLINATION":97.4463,"RA_OF_ASC_NODE":37.5259,"ARG_OF_PERICENTER":140.9505,"MEAN_ANOMALY":219.2352,"EPHEMERIS_TYPE":0,"CLASSIFICATION_TYPE":"U","NORAD_CAT_ID":64890,"ELEMENT_SET_NO":999,"REV_AT_EPOCH":6561,"BSTAR":0.00051551761,"MEAN_MOTION_DOT":0.00014341,"MEAN_MOTION_DDOT":0},{"OBJECT_NAME":"COSMOS 2251 DEB","OBJECT_ID":"1993-036AMV","EPOCH":"2026-03-09T05:38:06.550656","MEAN_MOTION":15.39543317,"ECCENTRICITY":0.00779257,"INCLINATION":73.9961,"RA_OF_ASC_NODE":355.5603,"ARG_OF_PERICENTER":37.2584,"MEAN_ANOMALY":111.9555,"EPHEMERIS_TYPE":0,"CLASSIFICATION_TYPE":"U","NORAD_CAT_ID":35602,"ELEMENT_SET_NO":999,"REV_AT_EPOCH":91420,"BSTAR":0.00072859847,"MEAN_MOTION_DOT":0.00031956,"MEAN_MOTION_DDOT":0}]
